GLOBALSTAR M035         
1 25851U 99037A   24116.75221821 -.00000078  00000+0 -55779-3 0  9993
2 25851  51.9949 265.8759 0013381  28.9941  78.5497 11.04529636 50137
GLOBALSTAR M032         
1 25852U 99037B   24116.29672112 -.00000066  00000+0  12125-4 0  9991
2 25852  51.9918 120.9218 0009820 182.8409 177.2336 11.19051619 88000
GLOBALSTAR M051         
1 25853U 99037C   24116.88046611 -.00000050  00000+0  53857-3 0  9995
2 25853  51.9814 327.5857 0001524 159.9433 200.1438 11.42195792 84704
GLOBALSTAR M048         
1 25872U 99041A   24116.61994920 -.00000050  00000+0  53147-3 0  9999
2 25872  51.9364 247.1001 0013928 179.8053 315.6409 11.33845417 77611
GLOBALSTAR M026         
1 25873U 99041B   24116.91652369 -.00000036  00000+0  10265-2 0  9998
2 25873  52.0052  27.8595 0001000 292.6935 146.1053 11.06835293102285
GLOBALSTAR M043         
1 25874U 99041C   24116.92919880 -.00000004  00000+0  19163-2 0  9995
2 25874  51.9432 337.3819 0012461 324.1621 136.5769 11.25680306 75886
GLOBALSTAR M028         
1 25875U 99041D   24116.94423679 -.00000048  00000+0  33663-3 0  9994
2 25875  51.9653 357.1794 0062729 245.1460 114.2870 12.50553944137970
